start=new Date('2023-02-04T00:00:00.000Z').valueOf();
sats=[{"TLE_LINE1":"1 45100U 20006BJ  23034.75630990  .00001369  00000-0  11077-3 0  9997","EPHEMERIS_TYPE":"0","REF_FRAME":"TEME","OBJECT_NAME":"STARLINK-1193","APOAPSIS":"548.102","PERIOD":"95.592","RA_OF_ASC_NODE":"279.0956","FILE":"3770748","ELEMENT_SET_NO":"999","SEMIMAJOR_AXIS":"6925.360","TLE_LINE2":"2 45100  53.0505 279.0956 0001266  82.7801 277.3332 15.06396253166717","MEAN_MOTION_DOT":"0.00001369","RCS_SIZE":"LARGE","DECAY_DATE":null,"CLASSIFICATION_TYPE":"U","MEAN_ANOMALY":"277.3332","ECCENTRICITY":"0.00012660","NORAD_CAT_ID":"45100","TIME_SYSTEM":"UTC","REV_AT_EPOCH":"16671","ARG_OF_PERICENTER":"82.7801","LAUNCH_DATE":"2020-01-29","OBJECT_ID":"2020-006BJ","OBJECT_TYPE":"PAYLOAD","BSTAR":"0.00011077000000","INCLINATION":"53.0505","MEAN_ELEMENT_THEORY":"SGP4","GP_ID":"224344935","SITE":"AFETR","EPOCH":"2023-02-03T18:09:05.175360","COUNTRY_CODE":"US","MEAN_MOTION":"15.06396253","MEAN_MOTION_DDOT":"0.0000000000000","CENTER_NAME":"EARTH","PERIAPSIS":"546.348"},{"DECAY_DATE":null,"CLASSIFICATION_TYPE":"U","MEAN_ANOMALY":"268.9706","FILE":"3770748","ELEMENT_SET_NO":"999","SEMIMAJOR_AXIS":"6925.360","TLE_LINE2":"2 45101  53.0526 279.3967 0001821  91.1491 268.9706 15.06396228166704","MEAN_MOTION_DOT":"0.00000712","RCS_SIZE":"LARGE","PERIOD":"95.592","RA_OF_ASC_NODE":"279.3967","TLE_LINE1":"1 45101U 20006BK  23034.68533216  .00000712  00000-0  66699-4 0  9995","EPHEMERIS_TYPE":"0","REF_FRAME":"TEME","APOAPSIS":"548.486","OBJECT_NAME":"STARLINK-1194","MEAN_MOTION":"15.06396228","MEAN_MOTION_DDOT":"0.0000000000000","CENTER_NAME":"EARTH","PERIAPSIS":"545.964","SITE":"AFETR","GP_ID":"224343684","MEAN_ELEMENT_THEORY":"SGP4","EPOCH":"2023-02-03T16:26:52.698624","COUNTRY_CODE":"US","REV_AT_EPOCH":"16670","ARG_OF_PERICENTER":"91.1491","LAUNCH_DATE":"2020-01-29","OBJECT_ID":"2020-006BK","OBJECT_TYPE":"PAYLOAD","BSTAR":"0.00006669900000","INCLINATION":"53.0526","ECCENTRICITY":"0.00018210","NORAD_CAT_ID":"45101","TIME_SYSTEM":"UTC"},{"TLE_LINE2":"2 45102  53.0527 279.3035 0001332  94.0558 266.0583 15.06391859166702","SEMIMAJOR_AXIS":"6925.374","RCS_SIZE":"LARGE","MEAN_MOTION_DOT":"-0.00000087","ELEMENT_SET_NO":"999","FILE":"3770748","CLASSIFICATION_TYPE":"U","MEAN_ANOMALY":"266.0583","DECAY_DATE":null,"OBJECT_NAME":"STARLINK-1195","APOAPSIS":"548.161","EPHEMERIS_TYPE":"0","TLE_LINE1":"1 45102U 20006BL  23034.70839230 -.00000087  00000-0  13077-4 0  9992","REF_FRAME":"TEME","RA_OF_ASC_NODE":"279.3035","PERIOD":"95.593","COUNTRY_CODE":"US","EPOCH":"2023-02-03T17:00:05.094720","GP_ID":"224343934","SITE":"AFETR","MEAN_ELEMENT_THEORY":"SGP4","PERIAPSIS":"546.316","CENTER_NAME":"EARTH","MEAN_MOTION":"15.06391859","MEAN_MOTION_DDOT":"0.0000000000000","NORAD_CAT_ID":"45102","TIME_SYSTEM":"UTC","ECCENTRICITY":"0.00013320","OBJECT_TYPE":"PAYLOAD","OBJECT_ID":"2020-006BL","INCLINATION":"53.0527","BSTAR":"0.00001307700000","REV_AT_EPOCH":"16670","LAUNCH_DATE":"2020-01-29","ARG_OF_PERICENTER":"94.0558"},{"APOAPSIS":"544.319","OBJECT_NAME":"STARLINK-1196","REF_FRAME":"TEME","TLE_LINE1":"1 45103U 20006BM  23034.06655545  .00015106  00000-0  99268-3 0  9999","EPHEMERIS_TYPE":"0","RA_OF_ASC_NODE":"282.0630","PERIOD":"95.503","MEAN_MOTION_DOT":"0.00015106","RCS_SIZE":"LARGE","SEMIMAJOR_AXIS":"6921.063","TLE_LINE2":"2 45103  53.0536 282.0630 0002010 129.3643 230.7525 15.07799265166614","FILE":"3770323","ELEMENT_SET_NO":"999","MEAN_ANOMALY":"230.7525","CLASSIFICATION_TYPE":"U","DECAY_DATE":null,"TIME_SYSTEM":"UTC","NORAD_CAT_ID":"45103","ECCENTRICITY":"0.00020100","BSTAR":"0.00099268000000","INCLINATION":"53.0536","OBJECT_TYPE":"PAYLOAD","OBJECT_ID":"2020-006BM","ARG_OF_PERICENTER":"129.3643","LAUNCH_DATE":"2020-01-29","REV_AT_EPOCH":"16661","COUNTRY_CODE":"US","SITE":"AFETR","GP_ID":"224308931","MEAN_ELEMENT_THEORY":"SGP4","EPOCH":"2023-02-03T01:35:50.390880","CENTER_NAME":"EARTH","PERIAPSIS":"541.537","MEAN_MOTION_DDOT":"0.0000000000000","MEAN_MOTION":"15.07799265"},{"REF_FRAME":"TEME","TLE_LINE1":"1 45178U 20012A   23034.52777730  .00001705  00000-0  13330-3 0  9996","EPHEMERIS_TYPE":"0","OBJECT_NAME":"STARLINK-1138","APOAPSIS":"548.250","PERIOD":"95.592","RA_OF_ASC_NODE":"80.1103","FILE":"3770118","ELEMENT_SET_NO":"999","MEAN_MOTION_DOT":"0.00001705","RCS_SIZE":"LARGE","SEMIMAJOR_AXIS":"6925.336","TLE_LINE2":"2 45178  53.0538  80.1103 0001514  93.1896 266.9266 15.06403939163840","DECAY_DATE":null,"MEAN_ANOMALY":"266.9266","CLASSIFICATION_TYPE":"U","ECCENTRICITY":"0.00015140","TIME_SYSTEM":"UTC","NORAD_CAT_ID":"45178","ARG_OF_PERICENTER":"93.1896","LAUNCH_DATE":"2020-02-17","REV_AT_EPOCH":"16384","BSTAR":"0.00013330000000","INCLINATION":"53.0538","OBJECT_ID":"2020-012A","OBJECT_TYPE":"PAYLOAD","MEAN_ELEMENT_THEORY":"SGP4","GP_ID":"224283920","SITE":"AFETR","EPOCH":"2023-02-03T12:39:59.958720","COUNTRY_CODE":"US","MEAN_MOTION_DDOT":"0.0000000000000","MEAN_MOTION":"15.06403939","CENTER_NAME":"EARTH","PERIAPSIS":"546.153"},{"GP_ID":"224283932","SITE":"AFETR","MEAN_ELEMENT_THEORY":"SGP4","EPOCH":"2023-02-03T09:32:51.986688","COUNTRY_CODE":"US","MEAN_MOTION":"15.06400826","MEAN_MOTION_DDOT":"0.0000000000000","CENTER_NAME":"EARTH","PERIAPSIS":"546.152","ECCENTRICITY":"0.00015290","NORAD_CAT_ID":"45179","TIME_SYSTEM":"UTC","REV_AT_EPOCH":"16382","ARG_OF_PERICENTER":"80.2828","LAUNCH_DATE":"2020-02-17","OBJECT_ID":"2020-012B","OBJECT_TYPE":"PAYLOAD","BSTAR":"0.00004253000000","INCLINATION":"53.0535","FILE":"3770118","ELEMENT_SET_NO":"999","SEMIMAJOR_AXIS":"6925.346","TLE_LINE2":"2 45179  53.0535  80.6975 0001529  80.2828 279.8334 15.06400826163827","MEAN_MOTION_DOT":"0.00000352","RCS_SIZE":"LARGE","DECAY_DATE":null,"CLASSIFICATION_TYPE":"U","MEAN_ANOMALY":"279.8334","TLE_LINE1":"1 45179U 20012B   23034.39782392  .00000352  00000-0  42530-4 0  9994","EPHEMERIS_TYPE":"0","REF_FRAME":"TEME","APOAPSIS":"548.270","OBJECT_NAME":"STARLINK-1143","PERIOD":"95.592","RA_OF_ASC_NODE":"80.6975"},{"PERIOD":"94.738","RA_OF_ASC_NODE":"67.9481","EPHEMERIS_TYPE":"0","TLE_LINE1":"1 45180U 20012C   23034.36667621  .00021600  00000-0  10027-2 0  9993","REF_FRAME":"TEME","APOAPSIS":"507.731","OBJECT_NAME":"STARLINK-1192","DECAY_DATE":null,"CLASSIFICATION_TYPE":"U","MEAN_ANOMALY":"318.6750","ELEMENT_SET_NO":"999","FILE":"3770501","TLE_LINE2":"2 45180  53.0492  67.9481 0002667  41.4447 318.6750 15.19982695164009","SEMIMAJOR_AXIS":"6884.030","RCS_SIZE":"LARGE","MEAN_MOTION_DOT":"0.00021600","REV_AT_EPOCH":"16400","LAUNCH_DATE":"2020-02-17","ARG_OF_PERICENTER":"41.4447","OBJECT_ID":"2020-012C","OBJECT_TYPE":"PAYLOAD","INCLINATION":"53.0492","BSTAR":"0.00100270000000","ECCENTRICITY":"0.00026670","NORAD_CAT_ID":"45180","TIME_SYSTEM":"UTC","MEAN_MOTION":"15.19982695","MEAN_MOTION_DDOT":"0.0000000000000","PERIAPSIS":"504.059","CENTER_NAME":"EARTH","EPOCH":"2023-02-03T08:48:00.824544","GP_ID":"224318839","SITE":"AFETR","MEAN_ELEMENT_THEORY":"SGP4","COUNTRY_CODE":"US"},{"ECCENTRICITY":"0.00011420","NORAD_CAT_ID":"45181","TIME_SYSTEM":"UTC","REV_AT_EPOCH":"16382","LAUNCH_DATE":"2020-02-17","ARG_OF_PERICENTER":"74.7885","OBJECT_ID":"2020-012D","OBJECT_TYPE":"PAYLOAD","INCLINATION":"53.0536","BSTAR":"0.00004683500000","EPOCH":"2023-02-03T09:13:00.327648","GP_ID":"224284031","SITE":"AFETR","MEAN_ELEMENT_THEORY":"SGP4","COUNTRY_CODE":"US","MEAN_MOTION":"15.06397157","MEAN_MOTION_DDOT":"0.0000000000000","PERIAPSIS":"546.431","CENTER_NAME":"EARTH","EPHEMERIS_TYPE":"0","TLE_LINE1":"1 45181U 20012D   23034.38403157  .00000416  00000-0  46835-4 0  9998","REF_FRAME":"TEME","OBJECT_NAME":"STARLINK-1200","APOAPSIS":"548.013","PERIOD":"95.592","RA_OF_ASC_NODE":"80.7579","ELEMENT_SET_NO":"999","FILE":"3770111","TLE_LINE2":"2 45181  53.0536  80.7579 0001142  74.7885 285.3230 15.06397157163823","SEMIMAJOR_AXIS":"6925.357","RCS_SIZE":"LARGE","MEAN_MOTION_DOT":"0.00000416","DECAY_DATE":null,"CLASSIFICATION_TYPE":"U","MEAN_ANOMALY":"285.3230"},{"FILE":"3770323","ELEMENT_SET_NO":"999","MEAN_MOTION_DOT":"0.00001375","RCS_SIZE":"LARGE","SEMIMAJOR_AXIS":"6925.344","TLE_LINE2":"2 45182  53.0546  60.3696 0001496  91.2786 268.8374 15.06401578164611","DECAY_DATE":null,"MEAN_ANOMALY":"268.8374","CLASSIFICATION_TYPE":"U","REF_FRAME":"TEME","TLE_LINE1":"1 45182U 20012E   23034.47064822  .00001375  00000-0  11115-3 0  9998","EPHEMERIS_TYPE":"0","APOAPSIS":"548.245","OBJECT_NAME":"STARLINK-1201","PERIOD":"95.592","RA_OF_ASC_NODE":"60.3696","GP_ID":"224307939","SITE":"AFETR","MEAN_ELEMENT_THEORY":"SGP4","EPOCH":"2023-02-03T11:17:44.006208","COUNTRY_CODE":"US","MEAN_MOTION_DDOT":"0.0000000000000","MEAN_MOTION":"15.06401578","CENTER_NAME":"EARTH","PERIAPSIS":"546.173","ECCENTRICITY":"0.00014960","TIME_SYSTEM":"UTC","NORAD_CAT_ID":"45182","LAUNCH_DATE":"2020-02-17","ARG_OF_PERICENTER":"91.2786","REV_AT_EPOCH":"16461","BSTAR":"0.00011115000000","INCLINATION":"53.0546","OBJECT_ID":"2020-012E","OBJECT_TYPE":"PAYLOAD"},{"LAUNCH_DATE":"2020-02-17","ARG_OF_PERICENTER":"116.7219","REV_AT_EPOCH":"16447","INCLINATION":"53.0537","BSTAR":"-0.00009372400000","OBJECT_TYPE":"PAYLOAD","OBJECT_ID":"2020-012F","ECCENTRICITY":"0.00015310","TIME_SYSTEM":"UTC","NORAD_CAT_ID":"45183","MEAN_MOTION_DDOT":"0.0000000000000","MEAN_MOTION":"15.06392324","PERIAPSIS":"546.177","CENTER_NAME":"EARTH","EPOCH":"2023-02-03T08:30:32.776128","MEAN_ELEMENT_THEORY":"SGP4","GP_ID":"224308188","SITE":"AFETR","COUNTRY_CODE":"US","PERIOD":"95.593","RA_OF_ASC_NODE":"80.8885","REF_FRAME":"TEME","EPHEMERIS_TYPE":"0","TLE_LINE1":"1 45183U 20012F   23034.35454602 -.00001677  00000-0 -93724-4 0  9999","APOAPSIS":"548.297","OBJECT_NAME":"STARLINK-1202","DECAY_DATE":null,"MEAN_ANOMALY":"243.3927","CLASSIFICATION_TYPE":"U","ELEMENT_SET_NO":"999","FILE":"3770323","RCS_SIZE":"LARGE","MEAN_MOTION_DOT":"-0.00001677","TLE_LINE2":"2 45183  53.0537  80.8885 0001531 116.7219 243.3927 15.06392324164477","SEMIMAJOR_AXIS":"6925.372"}];
